[{"OBJECT_NAME":"SKYSAT-A","OBJECT_ID":"2013-066C","EPOCH":"2026-03-05T17:33:46.549728","MEAN_MOTION":15.12319217,"ECCENTRICITY":0.00203797,"INCLINATION":97.3958,"RA_OF_ASC_NODE":117.3979,"ARG_OF_PERICENTER":315.2376,"MEAN_ANOMALY":44.7209,"EPHEMERIS_TYPE":0,"CLASSIFICATION_TYPE":"U","NORAD_CAT_ID":39418,"ELEMENT_SET_NO":999,"REV_AT_EPOCH":67284,"BSTAR":0.00025969231,"MEAN_MOTION_DOT":4.456e-5,"MEAN_MOTION_DDOT":0},{"OBJECT_NAME":"SKYSAT-B","OBJECT_ID":"2014-037D","EPOCH":"2026-03-05T19:53:10.195872","MEAN_MOTION":14.87708667,"ECCENTRICITY":0.00042314,"INCLINATION":98.3725,"RA_OF_ASC_NODE":17.9976,"ARG_OF_PERICENTER":249.7456,"MEAN_ANOMALY":110.3304,"EPHEMERIS_TYPE":0,"CLASSIFICATION_TYPE":"U","NORAD_CAT_ID":40072,"ELEMENT_SET_NO":999,"REV_AT_EPOCH":63059,"BSTAR":0.00031128954,"MEAN_MOTION_DOT":2.776e-5,"MEAN_MOTION_DDOT":0},{"OBJECT_NAME":"SKYSAT-C1","OBJECT_ID":"2016-040C","EPOCH":"2026-03-05T15:47:07.363104","MEAN_MOTION":15.34412247,"ECCENTRICITY":0.0003831,"INCLINATION":96.9703,"RA_OF_ASC_NODE":102.0473,"ARG_OF_PERICENTER":61.7119,"MEAN_ANOMALY":298.4512,"EPHEMERIS_TYPE":0,"CLASSIFICATION_TYPE":"U","NORAD_CAT_ID":41601,"ELEMENT_SET_NO":999,"REV_AT_EPOCH":54198,"BSTAR":0.00035129161,"MEAN_MOTION_DOT":0.00011641,"MEAN_MOTION_DDOT":0},{"OBJECT_NAME":"SKYSAT-C4","OBJECT_ID":"2016-058B","EPOCH":"2026-03-05T23:08:40.520832","MEAN_MOTION":15.45215327,"ECCENTRICITY":8.116e-5,"INCLINATION":96.9291,"RA_OF_ASC_NODE":91.2372,"ARG_OF_PERICENTER":95.9415,"MEAN_ANOMALY":264.1928,"EPHEMERIS_TYPE":0,"CLASSIFICATION_TYPE":"U","NORAD_CAT_ID":41771,"ELEMENT_SET_NO":999,"REV_AT_EPOCH":52951,"BSTAR":0.00037960881,"MEAN_MOTION_DOT":0.00017963,"MEAN_MOTION_DDOT":0},{"OBJECT_NAME":"SKYSAT-C5","OBJECT_ID":"2016-058C","EPOCH":"2026-03-05T15:38:01.763520","MEAN_MOTION":15.3419731,"ECCENTRICITY":0.00018299,"INCLINATION":97.0617,"RA_OF_ASC_NODE":109.8902,"ARG_OF_PERICENTER":85.2805,"MEAN_ANOMALY":274.8648,"EPHEMERIS_TYPE":0,"CLASSIFICATION_TYPE":"U","NORAD_CAT_ID":41772,"ELEMENT_SET_NO":999,"REV_AT_EPOCH":52787,"BSTAR":0.00032345588,"MEAN_MOTION_DOT":0.00010636,"MEAN_MOTION_DDOT":0},{"OBJECT_NAME":"SKYSAT-C2","OBJECT_ID":"2016-058D","EPOCH":"2026-03-05T14:43:47.673408","MEAN_MOTION":15.39570727,"ECCENTRICITY":0.0005201,"INCLINATION":97.0281,"RA_OF_ASC_NODE":90.7259,"ARG_OF_PERICENTER":77.1146,"MEAN_ANOMALY":283.0682,"EPHEMERIS_TYPE":0,"CLASSIFICATION_TYPE":"U","NORAD_CAT_ID":41773,"ELEMENT_SET_NO":999,"REV_AT_EPOCH":52910,"BSTAR":0.0003964,"MEAN_MOTION_DOT":0.00015535,"MEAN_MOTION_DDOT":0},{"OBJECT_NAME":"SKYSAT-C3","OBJECT_ID":"2016-058E","EPOCH":"2026-03-05T22:31:38.505504","MEAN_MOTION":15.48117378,"ECCENTRICITY":0.00016015,"INCLINATION":96.9177,"RA_OF_ASC_NODE":99.9694,"ARG_OF_PERICENTER":104.329,"MEAN_ANOMALY":255.8139,"EPHEMERIS_TYPE":0,"CLASSIFICATION_TYPE":"U","NORAD_CAT_ID":41774,"ELEMENT_SET_NO":999,"REV_AT_EPOCH":53011,"BSTAR":0.00043928832,"MEAN_MOTION_DOT":0.00023,"MEAN_MOTION_DDOT":0},{"OBJECT_NAME":"SKYSAT-C11","OBJECT_ID":"2017-068A","EPOCH":"2026-03-05T23:27:59.915520","MEAN_MOTION":15.52105926,"ECCENTRICITY":7.479e-5,"INCLINATION":97.4198,"RA_OF_ASC_NODE":209.8401,"ARG_OF_PERICENTER":86.245,"MEAN_ANOMALY":273.8888,"EPHEMERIS_TYPE":0,"CLASSIFICATION_TYPE":"U","NORAD_CAT_ID":42987,"ELEMENT_SET_NO":999,"REV_AT_EPOCH":46720,"BSTAR":0.00048687105,"MEAN_MOTION_DOT":0.00029367,"MEAN_MOTION_DDOT":0},{"OBJECT_NAME":"SKYSAT-C10","OBJECT_ID":"2017-068B","EPOCH":"2026-03-05T22:40:49.713312","MEAN_MOTION":15.32568577,"ECCENTRICITY":0.00010972,"INCLINATION":97.4334,"RA_OF_ASC_NODE":201.0392,"ARG_OF_PERICENTER":90.5546,"MEAN_ANOMALY":269.5821,"EPHEMERIS_TYPE":0,"CLASSIFICATION_TYPE":"U","NORAD_CAT_ID":42988,"ELEMENT_SET_NO":999,"REV_AT_EPOCH":46653,"BSTAR":0.00039939014,"MEAN_MOTION_DOT":0.00012489,"MEAN_MOTION_DDOT":0},{"OBJECT_NAME":"SKYSAT-C9","OBJECT_ID":"2017-068C","EPOCH":"2026-03-05T22:35:45.019392","MEAN_MOTION":15.38739653,"ECCENTRICITY":0.00097247,"INCLINATION":97.426,"RA_OF_ASC_NODE":201.0408,"ARG_OF_PERICENTER":145.1402,"MEAN_ANOMALY":215.0482,"EPHEMERIS_TYPE":0,"CLASSIFICATION_TYPE":"U","NORAD_CAT_ID":42989,"ELEMENT_SET_NO":999,"REV_AT_EPOCH":46686,"BSTAR":0.00044309908,"MEAN_MOTION_DOT":0.00016925,"MEAN_MOTION_DDOT":0},{"OBJECT_NAME":"SKYSAT-C8","OBJECT_ID":"2017-068D","EPOCH":"2026-03-05T08:20:38.660352","MEAN_MOTION":15.34624389,"ECCENTRICITY":8.59e-5,"INCLINATION":97.4349,"RA_OF_ASC_NODE":199.8628,"ARG_OF_PERICENTER":119.9658,"MEAN_ANOMALY":240.1671,"EPHEMERIS_TYPE":0,"CLASSIFICATION_TYPE":"U","NORAD_CAT_ID":42990,"ELEMENT_SET_NO":999,"REV_AT_EPOCH":46637,"BSTAR":0.00020698,"MEAN_MOTION_DOT":6.863e-5,"MEAN_MOTION_DDOT":0},{"OBJECT_NAME":"SKYSAT-C7","OBJECT_ID":"2017-068E","EPOCH":"2026-03-05T22:11:14.239968","MEAN_MOTION":15.34598589,"ECCENTRICITY":0.00073681,"INCLINATION":97.4362,"RA_OF_ASC_NODE":201.427,"ARG_OF_PERICENTER":114.8996,"MEAN_ANOMALY":245.3013,"EPHEMERIS_TYPE":0,"CLASSIFICATION_TYPE":"U","NORAD_CAT_ID":42991,"ELEMENT_SET_NO":999,"REV_AT_EPOCH":46652,"BSTAR":0.00042916922,"MEAN_MOTION_DOT":0.00014329,"MEAN_MOTION_DDOT":0},{"OBJECT_NAME":"SKYSAT-C6","OBJECT_ID":"2017-068F","EPOCH":"2026-03-05T15:41:58.742304","MEAN_MOTION":15.32630748,"ECCENTRICITY":0.0003632,"INCLINATION":97.4396,"RA_OF_ASC_NODE":201.4513,"ARG_OF_PERICENTER":121.6133,"MEAN_ANOMALY":238.5464,"EPHEMERIS_TYPE":0,"CLASSIFICATION_TYPE":"U","NORAD_CAT_ID":42992,"ELEMENT_SET_NO":999,"REV_AT_EPOCH":46645,"BSTAR":0.00050738,"MEAN_MOTION_DOT":0.00015927,"MEAN_MOTION_DDOT":0},{"OBJECT_NAME":"SKYSAT-C12","OBJECT_ID":"2018-099AR","EPOCH":"2026-03-05T14:45:22.234752","MEAN_MOTION":15.45428423,"ECCENTRICITY":0.0005133,"INCLINATION":96.938,"RA_OF_ASC_NODE":92.2038,"ARG_OF_PERICENTER":149.1452,"MEAN_ANOMALY":211.0101,"EPHEMERIS_TYPE":0,"CLASSIFICATION_TYPE":"U","NORAD_CAT_ID":43797,"ELEMENT_SET_NO":999,"REV_AT_EPOCH":40584,"BSTAR":0.00042979,"MEAN_MOTION_DOT":0.00020512,"MEAN_MOTION_DDOT":0},{"OBJECT_NAME":"SKYSAT-C13","OBJECT_ID":"2018-099AW","EPOCH":"2026-03-05T15:58:29.523072","MEAN_MOTION":15.7590122,"ECCENTRICITY":0.00034962,"INCLINATION":96.9409,"RA_OF_ASC_NODE":112.2939,"ARG_OF_PERICENTER":214.5355,"MEAN_ANOMALY":145.5685,"EPHEMERIS_TYPE":0,"CLASSIFICATION_TYPE":"U","NORAD_CAT_ID":43802,"ELEMENT_SET_NO":999,"REV_AT_EPOCH":40653,"BSTAR":0.00060012984,"MEAN_MOTION_DOT":0.00093221,"MEAN_MOTION_DDOT":0},{"OBJECT_NAME":"FLOCK 4Q-16","OBJECT_ID":"2023-174R","EPOCH":"2026-03-05T17:44:19.413312","MEAN_MOTION":15.44529443,"ECCENTRICITY":0.00079423,"INCLINATION":97.3873,"RA_OF_ASC_NODE":150.8025,"ARG_OF_PERICENTER":171.1277,"MEAN_ANOMALY":189.0113,"EPHEMERIS_TYPE":0,"CLASSIFICATION_TYPE":"U","NORAD_CAT_ID":58271,"ELEMENT_SET_NO":999,"REV_AT_EPOCH":12958,"BSTAR":0.00056541052,"MEAN_MOTION_DOT":0.00026228,"MEAN_MOTION_DDOT":0}]
