SKYSAT-A                
1 39418U 13066C   26064.73178877  .00004456  00000+0  25969-3 0  9999
2 39418  97.3958 117.3979 0020379 315.2376  44.7209 15.12319217672848
SKYSAT-B                
1 40072U 14037D   26064.82859023  .00002776  00000+0  31129-3 0  9993
2 40072  98.3725  17.9976 0004231 249.7456 110.3304 14.87708667630594
SKYSAT-C1               
1 41601U 16040C   26064.65772411  .00011641  00000+0  35129-3 0  9999
2 41601  96.9703 102.0473 0003831  61.7119 298.4512 15.34412247541986
SKYSAT-C4               
1 41771U 16058B   26064.96435788  .00017963  00000+0  37961-3 0  9992
2 41771  96.9291  91.2372 0000811  95.9415 264.1928 15.45215327529514
SKYSAT-C5               
1 41772U 16058C   26064.65140930  .00010636  00000+0  32346-3 0  9993
2 41772  97.0617 109.8902 0001829  85.2805 274.8648 15.34197310527872
SKYSAT-C2               
1 41773U 16058D   26064.61374622  .00015535  00000+0  39640-3 0  9994
2 41773  97.0281  90.7259 0005201  77.1146 283.0682 15.39570727529109
SKYSAT-C3               
1 41774U 16058E   26064.93864011  .00023000  00000+0  43929-3 0  9997
2 41774  96.9177  99.9694 0001601 104.3290 255.8139 15.48117378530115
SKYSAT-C11              
1 42987U 17068A   26064.97777680  .00029367  00000+0  48687-3 0  9993
2 42987  97.4198 209.8401 0000747  86.2450 273.8888 15.52105926467206
SKYSAT-C10              
1 42988U 17068B   26064.94501983  .00012489  00000+0  39939-3 0  9999
2 42988  97.4334 201.0392 0001097  90.5546 269.5821 15.32568577466532
SKYSAT-C9               
1 42989U 17068C   26064.94149328  .00016925  00000+0  44310-3 0  9999
2 42989  97.4260 201.0408 0009724 145.1402 215.0482 15.38739653466868
SKYSAT-C8               
1 42990U 17068D   26064.34766968  .00006863  00000+0  20698-3 0  9993
2 42990  97.4349 199.8628 0000859 119.9658 240.1671 15.34624389466378
SKYSAT-C7               
1 42991U 17068E   26064.92447037  .00014329  00000+0  42917-3 0  9995
2 42991  97.4362 201.4270 0007368 114.8996 245.3013 15.34598589466524
SKYSAT-C6               
1 42992U 17068F   26064.65415211  .00015927  00000+0  50738-3 0  9990
2 42992  97.4396 201.4513 0003632 121.6133 238.5464 15.32630748466459
SKYSAT-C12              
1 43797U 18099AR  26064.61484068  .00020512  00000+0  42979-3 0  9995
2 43797  96.9380  92.2038 0005133 149.1452 211.0101 15.45428423405844
SKYSAT-C13              
1 43802U 18099AW  26064.66561948  .00093221  00000+0  60013-3 0  9996
2 43802  96.9409 112.2939 0003496 214.5355 145.5685 15.75901220406534
FLOCK 4Q-16             
1 58271U 23174R   26064.73911358  .00026228  00000+0  56541-3 0  9998
2 58271  97.3873 150.8025 0007942 171.1277 189.0113 15.44529443129580
